*******************************************************************************
 Revised: September 28, 2017           Jupiter                              599
 
 PHYSICAL DATA (updated 2018-Aug-15):
  Mass x10^24 (kg)      = 1898.13+-.19    Density (g/cm^3)       =   1.326
  Equat. radius (1 bar) = 71492+-4 km     Polar radius (km)      =  66854+-10
  Vol. Mean Radius (km) = 69911+-6        Flattening             =   0.06487
  Geometric Albedo      = 0.52            Rocky core mass (Mc/M) =  0.0261
  Sid. rot. period (III)= 9h 55m 29.71 s  Sid. rot. rate (rad/s) =  0.00017585 
  Mean solar day, hrs   = ~9.9259         
  GM (km^3/s^2)         = 126686534.911   GM 1-sigma (km^3/s^2)  =  +-1.5
  Equ. grav, ge (m/s^2) = 24.79           Pol. grav, gp (m/s^2)  =  28.34
  Vis. magnitude V(1,0) = -9.40
  Vis. mag. (opposition)= -2.70           Obliquity to orbit     =  3.13 deg
  Sidereal orbit period = 11.861982204 y  Sidereal orbit period  = 4332.589 d
  Mean daily motion     = 0.0831294 deg/d Mean orbit speed, km/s = 13.0697
  Atmos. temp. (1 bar)  = 165+-5 K        Escape speed, km/s    =  59.5           
  A_roche(ice)/Rp       =  2.76           Hill's sphere rad. Rp  = 740
                                 Perihelion   Aphelion     Mean
  Solar Constant (W/m^2)         56           46           51
  Maximum Planetary IR (W/m^2)   13.7         13.4         13.6
  Minimum Planetary IR (W/m^2)   13.7         13.4         13.6
*******************************************************************************
 
 
*******************************************************************************
Ephemeris / WWW_USER Fri Nov  9 14:57:46 2018 Pasadena, USA      / Horizons    
*******************************************************************************
Target body name: Jupiter (599)                   {source: jup341}
Center body name: Earth (399)                     {source: DE431mx}
Center-site name: GEOCENTRIC
*******************************************************************************
Start time      : A.D. 1999-Nov-26 00:00:00.0000 UT      
Stop  time      : A.D. 1999-Nov-28 00:00:00.0000 UT      
Step-size       : 5 minutes
*******************************************************************************
Target pole/equ : IAU_JUPITER                     {West-longitude positive}
Target radii    : 71492.0 x 71492.0 x 66854.0 km  {Equator, meridian, pole}    
Center geodetic : 0.00000000,0.00000000,0.0000000 {E-lon(deg),Lat(deg),Alt(km)}
Center cylindric: 0.00000000,0.00000000,0.0000000 {E-lon(deg),Dxy(km),Dz(km)}
Center pole/equ : High-precision EOP model        {East-longitude positive}
Center radii    : 6378.1 x 6378.1 x 6356.8 km     {Equator, meridian, pole}    
Target primary  : Sun
Vis. interferer : MOON (R_eq= 1737.400) km        {source: DE431mx}
Rel. light bend : Sun, EARTH                      {source: DE431mx}
Rel. lght bnd GM: 1.3271E+11, 3.9860E+05 km^3/s^2                              
Atmos refraction: NO (AIRLESS)
RA format       : DEG
Time format     : CAL 
EOP file        : eop.181108.p190130                                           
EOP coverage    : DATA-BASED 1962-JAN-20 TO 2018-NOV-08. PREDICTS-> 2019-JAN-29
Units conversion: 1 au= 149597870.700 km, c= 299792.458 km/s, 1 day= 86400.0 s 
Table cut-offs 1: Elevation (-90.0deg=NO ),Airmass (>38.000=NO), Daylight (NO )
Table cut-offs 2: Solar elongation (  0.0,180.0=NO ),Local Hour Angle( 0.0=NO )
Table cut-offs 3: RA/DEC angular rate (     0.0=NO )                           
**************************************************************************************************************************************
 Date__(UT)__HR:MN:SC.fff     R.A._(ICRF/J2K)_DEC Ang-diam Ob-lon Ob-lat Sl-lon Sl-lat   NP.ang   NP.dist            delta      deldot
**************************************************************************************************************************************
$$SOE
 1999-Nov-26 03:40:00.000      24.67132   8.70875 47.61075  95.46   3.54  88.51   3.46 337.3256     22.22 4.14077987768461  17.0950552
 1999-Nov-26 03:45:00.000      24.67105   8.70866 47.61036  98.49   3.54  91.54   3.46 337.3256     22.22 4.14081416128673  17.0964705
 1999-Nov-26 03:50:00.000      24.67077   8.70857 47.60996 101.51   3.54  94.56   3.46 337.3255     22.22 4.14084844772695  17.0978857
 1999-Nov-26 03:55:00.000      24.67050   8.70848 47.60957 104.53   3.54  97.58   3.46 337.3254     22.22 4.14088273700496  17.0993007
 1999-Nov-26 04:00:00.000      24.67023   8.70840 47.60917 107.56   3.54 100.60   3.46 337.3254     22.22 4.14091702912050  17.1007156
 1999-Nov-26 04:05:00.000      24.66996   8.70831 47.60878 110.58   3.54 103.63   3.46 337.3253     22.22 4.14095132407326  17.1021303
 1999-Nov-26 04:10:00.000      24.66969   8.70822 47.60838 113.60   3.54 106.65   3.46 337.3253     22.22 4.14098562186298  17.1035449
 1999-Nov-26 04:15:00.000      24.66942   8.70813 47.60799 116.62   3.54 109.67   3.46 337.3252     22.22 4.14101992248937  17.1049593
 1999-Nov-26 04:20:00.000      24.66915   8.70805 47.60760 119.65   3.54 112.69   3.46 337.3252     22.22 4.14105422595216  17.1063736
 1999-Nov-26 04:25:00.000      24.66887   8.70796 47.60720 122.67   3.54 115.71   3.46 337.3251     22.22 4.14108853225108  17.1077878
 1999-Nov-26 04:30:00.000      24.66860   8.70787 47.60681 125.69   3.54 118.74   3.46 337.3250     22.22 4.14112284138587  17.1092019
 1999-Nov-26 04:35:00.000      24.66833   8.70778 47.60641 128.72   3.54 121.76   3.46 337.3250     22.22 4.14115715335625  17.1106158
 1999-Nov-26 04:40:00.000      24.66806   8.70769 47.60602 131.74   3.54 124.78   3.46 337.3249     22.22 4.14119146816196  17.1120296
 1999-Nov-26 04:45:00.000      24.66779   8.70761 47.60562 134.76   3.54 127.80   3.46 337.3249     22.22 4.14122578580275  17.1134432
 1999-Nov-26 04:50:00.000      24.66752   8.70752 47.60523 137.78   3.54 130.83   3.46 337.3248     22.22 4.14126010627836  17.1148568
 1999-Nov-26 04:55:00.000      24.66725   8.70743 47.60483 140.81   3.54 133.85   3.46 337.3248     22.22 4.14129442958853  17.1162702
 1999-Nov-26 05:00:00.000      24.66698   8.70734 47.60444 143.83   3.54 136.87   3.46 337.3247     22.22 4.14132875573301  17.1176834
 1999-Nov-26 05:05:00.000      24.66670   8.70726 47.60404 146.85   3.54 139.89   3.46 337.3247     22.22 4.14136308471155  17.1190966
 1999-Nov-26 05:10:00.000      24.66643   8.70717 47.60365 149.88   3.54 142.91   3.46 337.3246     22.22 4.14139741652392  17.1205096
 1999-Nov-26 05:15:00.000      24.66616   8.70708 47.60326 152.90   3.54 145.94   3.46 337.3245     22.22 4.14143175116986  17.1219225
 1999-Nov-26 05:20:00.000      24.66589   8.70699 47.60286 155.92   3.54 148.96   3.46 337.3245     22.21 4.14146608864914  17.1233353
 1999-Nov-26 05:25:00.000      24.66562   8.70691 47.60247 158.94   3.54 151.98   3.46 337.3244     22.21 4.14150042896152  17.1247480
 1999-Nov-26 05:30:00.000      24.66535   8.70682 47.60207 161.97   3.54 155.00   3.46 337.3244     22.21 4.14153477210678  17.1261606
 1999-Nov-26 05:35:00.000      24.66508   8.70673 47.60168 164.99   3.54 158.02   3.46 337.3243     22.21 4.14156911808467  17.1275730
 1999-Nov-26 05:40:00.000      24.66481   8.70664 47.60128 168.01   3.54 161.05   3.46 337.3243     22.21 4.14160346689498  17.1289854
 1999-Nov-26 05:45:00.000      24.66454   8.70656 47.60089 171.03   3.54 164.07   3.46 337.3242     22.21 4.14163781853748  17.1303976
 1999-Nov-26 05:50:00.000      24.66427   8.70647 47.60049 174.06   3.54 167.09   3.46 337.3241     22.21 4.14167217301194  17.1318097
 1999-Nov-26 05:55:00.000      24.66400   8.70638 47.60010 177.08   3.54 170.11   3.46 337.3241     22.21 4.14170653031816  17.1332217
 1999-Nov-26 06:00:00.000      24.66373   8.70629 47.59970 180.10   3.54 173.14   3.46 337.3240     22.21 4.14174089045591  17.1346336
 1999-Nov-26 06:05:00.000      24.66345   8.70621 47.59931 183.13   3.54 176.16   3.46 337.3240     22.21 4.14177525342498  17.1360454
 1999-Nov-26 06:10:00.000      24.66318   8.70612 47.59891 186.15   3.54 179.18   3.46 337.3239     22.21 4.14180961922517  17.1374571
 1999-Nov-26 06:15:00.000      24.66291   8.70603 47.59852 189.17   3.54 182.20   3.46 337.3239     22.21 4.14184398785627  17.1388687
 1999-Nov-26 06:20:00.000      24.66264   8.70594 47.59812 192.19   3.54 185.22   3.46 337.3238     22.21 4.14187835931808  17.1402802
 1999-Nov-26 06:25:00.000      24.66237   8.70586 47.59773 195.22   3.54 188.25   3.46 337.3238     22.21 4.14191273361040  17.1416916
 1999-Nov-26 06:30:00.000      24.66210   8.70577 47.59733 198.24   3.54 191.27   3.46 337.3237     22.21 4.14194711073303  17.1431029
 1999-Nov-26 06:35:00.000      24.66183   8.70568 47.59694 201.26   3.54 194.29   3.46 337.3236     22.21 4.14198149068577  17.1445141
 1999-Nov-26 06:40:00.000      24.66156   8.70559 47.59654 204.29   3.54 197.31   3.46 337.3236     22.21 4.14201587346845  17.1459252
 1999-Nov-26 06:45:00.000      24.66129   8.70551 47.59615 207.31   3.54 200.34   3.46 337.3235     22.21 4.14205025908086  17.1473362
 1999-Nov-26 06:50:00.000      24.66102   8.70542 47.59575 210.33   3.54 203.36   3.46 337.3235     22.21 4.14208464752284  17.1487472
 1999-Nov-26 06:55:00.000      24.66075   8.70533 47.59536 213.35   3.54 206.38   3.46 337.3234     22.21 4.14211903879419  17.1501580
 1999-Nov-26 07:00:00.000      24.66048   8.70524 47.59496 216.38   3.54 209.40   3.46 337.3234     22.21 4.14215343289474  17.1515687
 1999-Nov-26 07:05:00.000      24.66021   8.70516 47.59457 219.40   3.54 212.42   3.46 337.3233     22.21 4.14218782982431  17.1529794
 1999-Nov-26 07:10:00.000      24.65994   8.70507 47.59417 222.42   3.54 215.45   3.46 337.3232     22.21 4.14222222958274  17.1543900
 1999-Nov-26 07:15:00.000      24.65967   8.70498 47.59378 225.45   3.54 218.47   3.46 337.3232     22.21 4.14225663216985  17.1558005
